ONEWEB-0685             
1 54679U 22166AP  24204.95645986  .00000031  00000+0  43759-4 0  9997
2 54679  87.9283  22.1859 0002097  88.6858 271.4516 13.21827208 79701
ONEWEB-0712             
1 54680U 22166AQ  24204.92980440  .00000033  00000+0  52581-4 0  9998
2 54680  87.9113   6.9988 0001518  79.5119 280.6183 13.17105516 80704
ONEWEB-0532             
1 55140U 23004A   24204.36890065  .00000069  00000+0  14334-3 0  9995
2 55140  87.9190 144.2109 0002079  95.1690 264.9678 13.17648040 76087
ONEWEB-0541             
1 55142U 23004C   24204.95798586  .00000127  00000+0  32236-3 0  9993
2 55142  87.8985 159.2371 0002065  83.2894 276.8469 13.11413859 74952
ONEWEB-0543             
1 55143U 23004D   24204.28725585  .00000073  00000+0  15131-3 0  9994
2 55143  87.9139 113.8888 0002053  67.2082 292.9267 13.18685603 78114
ONEWEB-0544             
1 55144U 23004E   24204.28092347  .00000054  00000+0  10455-3 0  9991
2 55144  87.9143 113.8754 0001817  78.1880 281.9456 13.18684492 78119
